[{"OBJECT_NAME":"JILIN-1 GAOFEN 03D47","OBJECT_ID":"2022-167L","EPOCH":"2026-03-09T22:56:46.924224","MEAN_MOTION":15.31686941,"ECCENTRICITY":0.00089304,"INCLINATION":97.6835,"RA_OF_ASC_NODE":234.6581,"ARG_OF_PERICENTER":110.4031,"MEAN_ANOMALY":249.8169,"EPHEMERIS_TYPE":0,"CLASSIFICATION_TYPE":"U","NORAD_CAT_ID":54692,"ELEMENT_SET_NO":999,"REV_AT_EPOCH":18014,"BSTAR":0.00047294748,"MEAN_MOTION_DOT":0.00014417,"MEAN_MOTION_DDOT":0},{"OBJECT_NAME":"STARLINK-35503","OBJECT_ID":"2025-245M","EPOCH":"2026-03-09T19:52:06.749760","MEAN_MOTION":15.30211126,"ECCENTRICITY":0.00011442,"INCLINATION":53.1577,"RA_OF_ASC_NODE":283.5394,"ARG_OF_PERICENTER":108.4847,"MEAN_ANOMALY":251.6278,"EPHEMERIS_TYPE":0,"CLASSIFICATION_TYPE":"U","NORAD_CAT_ID":66245,"ELEMENT_SET_NO":999,"REV_AT_EPOCH":2122,"BSTAR":0.00098557575,"MEAN_MOTION_DOT":0.00028955,"MEAN_MOTION_DDOT":0}]
